354P/LINEAR,e,5.2510,320.0716,132.7944,2.289760,0.2844587,0.12448669,57.2032,05/02.0/2024,2000,g 15.5,4.0
# From MPEC 2023-CD7
355P/LINEAR-NEAT,e,11.0471,51.4343,336.3286,3.469886,0.1524864,0.50811912,4.6658,05/02.0/2024,2000,g 15.5,2.0
# From MPEC 2022-F14
356P/WISE,e,9.6402,160.8119,226.1337,4.154482,0.1163935,0.35606925,270.2609,05/02.0/2024,2000,g 14.0,4.0
# From MPC114609
357P/Hill,e,6.3145,44.5803,1.4480,4.456140,0.1047770,0.43613296,226.3974,05/02.0/2024,2000,g 15.5,4.0
# From MPEC 2024-EF7
358P/PANSTARRS,e,11.0645,85.6659,299.5983,3.149443,0.1763411,0.23975074,30.6107,05/02.0/2024,2000,g 18.0,4.0
# From MPC110086
359P/LONEOS,e,10.2638,149.7728,200.2938,4.641221,0.0985725,0.32358786,240.8279,05/02.0/2024,2000,g 13.5,4.0
# From MPC108599
360P/WISE,e,24.1084,2.2133,354.2363,3.697259,0.1386386,0.49916719,338.5474,05/02.0/2024,2000,g 19.5,6.0
# From MPEC 2023-CD7
361P/Spacewatch,e,13.9023,203.2549,219.0568,4.933638,0.0899400,0.43955269,191.3011,05/02.0/2024,2000,g 12.0,4.0
# From MPEC 2017-V13
362P/,e,15.5550,192.4947,53.5412,3.973523,0.1244344,0.27869926,350.1459,05/02.0/2024,2000,g 12.9,2.0
# From MPC114609
363P/Lemmon,e,5.3896,146.6547,340.8621,3.576562,0.1457154,0.51892031,331.5580,05/02.0/2024,2000,g 17.5,4.0
# From MPEC 2023-XP6
364P/PANSTARRS,e,12.1287,46.1496,212.1290,2.885500,0.2010817,0.72180905,71.1539,05/02.0/2024,2000,g 17.0,2.0
# From MPC111775
365P/PANSTARRS,e,9.8496,86.6566,67.4286,3.156451,0.1757541,0.58141807,36.1355,05/02.0/2024,2000,g 17.0,4.0
# From MPC114610
366P/Spacewatch,e,8.8570,70.7234,153.0237,3.498522,0.1506181,0.34833001,318.7326,05/02.0/2024,2000,g 15.0,4.0
# From MPC112395
367P/Catalina,e,8.4597,58.6610,172.7317,3.510148,0.1498704,0.27985891,321.8272,05/02.0/2024,2000,g 17.5,2.0
# From MPC114610
368P/NEAT,e,15.4813,257.8669,118.9544,5.532536,0.0757387,0.62634946,155.6403,05/02.0/2024,2000,g 14.0,4.0
# From MPC114610
369P/Hill,e,10.3227,47.2977,13.1900,4.379847,0.1075265,0.55590072,217.4702,05/02.0/2024,2000,g 15.0,4.0
# From MPEC 2021-F20
370P/NEAT,e,19.4238,55.0813,356.7418,6.437260,0.0603466,0.61552559,129.7853,05/02.0/2024,2000,g 13.0,4.0
# From MPC114610
371P/LINEAR-Skiff,e,17.3848,67.2835,308.5627,4.180475,0.1153097,0.47693526,234.4872,05/02.0/2024,2000,g 16.0,4.0
# From MPEC 2020-K19
372P/McNaught,e,9.5074,27.5510,326.0198,4.510717,0.1028811,0.15180346,207.4719,05/02.0/2024,2000,g 13.5,4.0
# From MPEC 2021-F20
373P/Rinner,e,13.7703,231.9457,221.0559,3.798768,0.1331190,0.39358315,246.0592,05/02.0/2024,2000,g 14.5,4.0
# From MPC114610
374P/Larson,e,10.7653,7.9040,51.5048,4.971041,0.0889269,0.46376521,172.1105,05/02.0/2024,2000,g 14.0,4.0
# From MPEC 2021-F20
375P/Hill,e,17.3660,359.8944,119.3827,5.546936,0.0754439,0.65975024,147.7116,05/02.0/2024,2000,g 16.0,4.0
# From MPEC 2022-K19
376P/LONEOS,e,1.1663,312.8829,285.4114,5.757559,0.0713422,0.51404611,120.5927,05/02.0/2024,2000,g 12.5,4.0
# From MPEC 2022-N37
377P/Scotti,e,9.0246,226.0354,354.8916,6.697878,0.0568589,0.25108600,79.1639,05/02.0/2024,2000,g  9.5,4.0
# From MPEC 2024-D33
378P/McNaught,e,19.1345,93.8364,193.4137,6.295158,0.0624014,0.46533595,81.0259,05/02.0/2024,2000,g 12.0,4.0
# From MPC115889
379P/Spacewatch,e,12.4452,30.5425,184.2498,3.490836,0.1511158,0.34957780,260.0715,05/02.0/2024,2000,g 15.0,4.0
# From MPEC 2023-C45
380P/PANSTARRS,e,8.0149,128.2300,87.8878,4.423667,0.1059328,0.33791636,194.7641,05/02.0/2024,2000,g 12.5,4.0
# From MPEC 2021-J28
381P/LINEAR-Spacewatch,e,28.3617,173.2906,173.8471,7.143099,0.0516267,0.68119016,86.7065,05/02.0/2024,2000,g 17.5,2.0
# From MPEC 2024-EF7
382P/Larson,e,8.2815,172.1601,162.4576,5.959250,0.0677511,0.27180551,60.4464,05/02.0/2024,2000,g  8.0,4.0
# From MPEC 2022-OB6
383P/Christensen,e,12.3209,207.8511,133.7571,3.547988,0.1474792,0.59882919,243.2883,05/02.0/2024,2000,g 18.0,4.0
# From MPEC 2022-OB6
384P/Kowalski,e,7.2832,354.2006,37.7072,2.898415,0.1997391,0.61629765,332.0085,05/02.0/2024,2000,g 19.5,4.0
# From MPEC 2021-F20
385P/Hill,e,16.8282,357.0674,44.3984,4.288736,0.1109711,0.40212953,187.4508,05/02.0/2024,2000,g 13.0,4.0
# From MPEC 2021-L04
386P/PANSTARRS,e,15.2400,134.9181,353.0803,4.050517,0.1209034,0.41703089,163.3905,05/02.0/2024,2000,g 14.5,4.0
# From MPEC 2021-J28
387P/Boattini,e,8.9355,259.2445,162.8243,4.797081,0.0938077,0.73709632,159.2751,05/02.0/2024,2000,g 15.0,4.0
# From MPEC 2021-S45
388P/Gibbs,e,23.8899,37.0309,42.3197,5.240578,0.0821552,0.61926055,143.1470,05/02.0/2024,2000,g 13.0,4.0
# From MPEC 2022-OB6
389P/Siding Spring,e,160.0861,218.8816,249.3839,5.632726,0.0737269,0.70506585,116.8085,05/02.0/2024,2000,g 16.0,4.0
# From MPEC 2024-EF7
390P/Gibbs,e,18.5391,152.2409,232.4816,5.814796,0.0702914,0.70721557,105.5162,05/02.0/2024,2000,g 12.0,4.0
# From MPEC 2021-F20
391P/Kowalski,e,21.2612,124.7886,187.1946,4.688293,0.0970917,0.11881710,217.0999,05/02.0/2024,2000,g  8.0,4.0
# From MPEC 2021-J28
392P/LINEAR,e,4.9315,24.8485,71.8955,6.140786,0.0647691,0.68374498,96.5695,05/02.0/2024,2000,g 14.5,4.0
# From MPEC 2023-T65
393P/Spacewatch-Hill,e,16.7872,36.3926,329.1652,4.797076,0.0938078,0.11986751,154.2385,05/02.0/2024,2000,g 11.0,4.0
# From MPEC 2020-KB7
394P/PANSTARRS,e,8.5295,98.1242,54.4031,4.328454,0.1094472,0.36779844,176.8058,05/02.0/2024,2000,g 16.0,2.4
# From MPEC 2024-C04
395P/Catalina-NEAT,e,3.5824,221.0353,99.7866,7.180795,0.0512207,0.41501249,41.1149,05/02.0/2024,2000,g 10.0,4.0
# From MPEC 2020-KB7
396P/,e,5.4395,136.6249,8.3138,6.800572,0.0555758,0.41639380,94.9893,05/02.0/2024,2000,g 12.0,4.0
# From MPEC 2022-OB6
397P/Lemmon,e,10.9254,8.2252,14.5585,3.831271,0.1314286,0.40503209,185.5508,05/02.0/2024,2000,g 12.0,4.0
# From MPEC 2021-L04
398P/Boattini,e,11.0223,320.1496,127.5028,3.125530,0.1783687,0.58357907,217.8541,05/02.0/2024,2000,g 15.5,4.0
# From MPEC 2023-XP6
399P/PANSTARRS,e,13.3212,207.1298,214.3966,3.793020,0.1334217,0.44744197,143.3933,05/02.0/2024,2000,g 14.0,4.0
# From MPEC 2022-ED3
400P/PANSTARRS,e,10.9294,176.4030,238.8609,3.561928,0.1466143,0.40972031,172.4215,05/02.0/2024,2000,g 15.5,2.8
# From MPEC 2022-K19
401P/McNaught,e,12.8015,359.9081,309.4204,5.777884,0.0709661,0.57874576,114.2330,05/02.0/2024,2000,g 12.5,4.0
# From MPEC 2024-F34
402P/LINEAR,e,30.8328,123.0695,326.8617,7.034062,0.0528317,0.43995668,45.8880,05/02.0/2024,2000,g  8.0,4.0
# From MPEC 2021-J28
403P/Catalina,e,12.3283,277.5775,163.8983,5.430482,0.0778837,0.50427389,103.0176,05/02.0/2024,2000,g 12.0,4.0
# From MPEC 2024-H91
404P/Bressi,e,9.8019,260.0369,169.3496,4.727769,0.0958782,0.12587122,17.2654,05/02.0/2024,2000,g 10.0,4.0
# From MPEC 2021-L04
405P/Lemmon,e,9.3751,112.1900,3.2951,3.604793,0.1440070,0.68985105,176.2940,05/02.0/2024,2000,g 17.5,4.0
# From MPEC 2021-F20
406P/Gibbs,e,1.2110,352.4140,11.5431,3.578339,0.1456068,0.54154417,192.7991,05/02.0/2024,2000,g 17.0,4.0
# From MPEC 2022-YN2
407P/PANSTARRS-Fuls,e,4.8760,80.2472,93.4661,3.485332,0.1514739,0.37696413,236.5734,05/02.0/2024,2000,g 14.0,4.0
# From MPEC 2024-H91
408P/Novichonok-Gerke,e,19.3563,189.4441,226.5830,4.743444,0.0954033,0.26867776,54.7892,05/02.0/2024,2000,g 11.0,4.0
# From MPEC 2022-ED3
409P/LONEOS-Hill,e,17.1342,143.6482,15.0559,6.034124,0.0664940,0.70985391,79.1211,05/02.0/2024,2000,g 14.0,4.0
# From MPEC 2022-M21
410P/NEAT-LINEAR,e,9.3890,139.9691,313.1592,6.648026,0.0574996,0.51163743,59.9585,05/02.0/2024,2000,g 12.5,4.0
# From MPEC 2021-J28
411P/Christensen,e,12.3889,77.6529,46.5548,5.811332,0.0703543,0.58139339,83.9460,05/02.0/2024,2000,g 13.5,4.0
# From MPEC 2021-F20
412P/WISE,e,8.9310,0.8457,155.8970,3.110560,0.1796578,0.47894237,223.6626,05/02.0/2024,2000,g 17.0,4.0
# From MPEC 2022-OB6
413P/Larson,e,15.9779,39.2294,186.5449,3.732168,0.1366980,0.41955422,139.2143,05/02.0/2024,2000,g 14.0,4.0
# From MPEC 2024-H91
414P/STEREO,e,23.4071,257.8166,210.6897,2.792827,0.2111729,0.81211504,251.8020,05/02.0/2024,2000,g 19.0,4.0
# From MPEC 2022-J42
415P/Tenagra,e,31.7976,160.2696,345.8821,4.109740,0.1182994,0.19508443,138.8248,05/02.0/2024,2000,g 12.0,4.0
# From MPEC 2021-L04
416P/Scotti,e,3.3619,355.7647,134.4089,4.007767,0.1228430,0.45498111,143.8807,05/02.0/2024,2000,g 15.5,4.0
# From MPEC 2021-W31
417P/NEOWISE,e,8.3450,123.5390,116.1467,3.307695,0.1638385,0.57123215,179.8926,05/02.0/2024,2000,g 16.5,4.0
# From MPEC 2022-TA0
418P/LINEAR,e,5.7802,277.6469,307.3690,5.094120,0.0857236,0.66376272,79.5712,05/02.0/2024,2000,g 13.0,4.0
# From MPEC 2023-UR6
419P/PANSTARRS,e,2.8011,40.4119,187.8747,3.527711,0.1487526,0.27595261,136.4881,05/02.0/2024,2000,g 12.5,4.0
# From MPEC 2024-C04
420P/Hill,e,14.4850,173.7857,156.5418,5.502466,0.0763604,0.49544031,54.4477,05/02.0/2024,2000,g 11.5,4.0
# From MPEC 2021-W31
421P/McNaught,e,10.0757,55.3314,259.8969,5.076299,0.0861754,0.67468065,102.8146,05/02.0/2024,2000,g 14.0,4.0
# From MPEC 2022-X67
422P/Christensen,e,39.5834,36.0244,304.8336,6.281870,0.0625995,0.50633707,52.6533,05/02.0/2024,2000,g 11.0,4.0
# From MPEC 2023-FK0
423P/Lemmon,e,8.3456,33.2983,80.5465,6.176531,0.0642077,0.12245814,61.1996,05/02.0/2024,2000,g  8.0,4.0
# From MPEC 2022-CN4
424P/LaSagra,e,8.6830,51.1929,312.5518,4.419430,0.1060852,0.69092668,96.9104,05/02.0/2024,2000,g 17.0,4.0
# From MPEC 2024-C04
425P/Kowalski,e,16.4204,210.0756,200.9111,6.346183,0.0616503,0.54402730,58.8120,05/02.0/2024,2000,g 12.0,4.0
# From MPEC 2024-A43
426P/PANSTARRS,e,17.7806,280.3947,118.5811,3.187898,0.1731599,0.16143517,40.4805,05/02.0/2024,2000,g 13.5,4.0
# From MPEC 2023-J29
428P/Gibbs,e,8.5058,299.3278,36.9032,3.487208,0.1513517,0.51869480,164.0447,05/02.0/2024,2000,g 15.0,4.0
# From MPEC 2024-EF7
429P/LINEAR-Hill,e,7.5165,322.0501,75.6655,3.554483,0.1470752,0.49128854,125.1125,05/02.0/2024,2000,g 15.5,4.0
# From MPEC 2022-L66
430P/Scotti,e,4.4752,54.6683,94.4239,3.104188,0.1802113,0.49984566,158.9045,05/02.0/2024,2000,g 16.5,4.0
# From MPEC 2024-EF7
431P/Scotti,e,22.3903,202.8432,199.9615,3.475826,0.1520957,0.47770936,122.9581,05/02.0/2024,2000,g 14.0,4.0
# From MPEC 2021-U31
